STARLINK-3055
1 49137U 21082H   26092.59355204 -.00000069  00000+0  19727-5 0  9995
2 49137  69.9986 215.0451 0002848 271.3854  88.6978 14.97516135250031
STARLINK-3109
1 49143U 21082P   26092.58949607  .00000522  00000+0  52567-4 0  9998
2 49143  70.0013 215.0591 0003343 271.5619  88.5156 14.97523470251149
STARLINK-3116
1 49146U 21082S   26092.58532068  .00001063  00000+0  98839-4 0  9993
2 49146  70.0008 215.0729 0003157 269.3357  90.7440 14.97525885251183
STARLINK-3048
1 49148U 21082U   26092.44337806 -.00000225  00000+0 -11327-4 0  9991
2 49148  70.0004 215.4082 0003257 269.8554  90.2231 14.97525070250001
STARLINK-3068
1 49154U 21082AA  26092.43920472  .00000285  00000+0  32264-4 0  9991
2 49154  70.0007 215.4219 0003246 271.1842  88.8945 14.97526031251089
STARLINK-3088
1 49163U 21082AK  26092.76065683  .00001126  00000+0  10420-3 0  9995
2 49163  70.0001 214.6233 0003141 269.9286  90.1512 14.97529826251217
STARLINK-3089
1 49166U 21082AN  26092.75647976  .00000941  00000+0  88415-4 0  9992
2 49166  69.9994 214.6376 0003170 269.9061  90.1734 14.97529001251254
STARLINK-3087
1 49175U 21082AX  26092.78642493  .00001464  00000+0  13315-3 0  9991
2 49175  69.9999 214.6942 0003148 269.4115  90.6683 14.97534124250055
STARLINK-5479
1 55662U 23021AL  26092.76653873 -.00000174  00000+0 -69934-5 0  9995
2 55662  69.9988 103.6625 0003230 270.7445  89.3344 14.97518823172891
